STARLINK-35533          
1 66429U 25259H   25325.66672454 -.01549115  00000+0 -78192-2 0  9993
2 66429  42.9971 172.3062 0001561 265.6462 321.3942 15.83452049  2890
STARLINK-35470          
1 66430U 25259J   25325.66672454 -.01561699  00000+0 -78988-2 0  9999
2 66430  42.9978 172.3010 0001557 265.2199 324.2420 15.83433382  2892
STARLINK-35439          
1 66431U 25259K   25325.66672454 -.01569426  00000+0 -79424-2 0  9992
2 66431  42.9972 172.2944 0001558 266.3565 325.2160 15.83436058  2897
STARLINK-35446          
1 66432U 25259L   25325.66672454 -.01576699  00000+0 -79932-2 0  9997
2 66432  42.9969 172.2881 0001586 264.4483 329.5327 15.83412957  2897
STARLINK-35457          
1 66433U 25259M   25325.66672454 -.01587231  00000+0 -80598-2 0  9992
2 66433  42.9974 172.2833 0001600 264.7168 331.6101 15.83398639  2895
STARLINK-35389          
1 66434U 25259N   25325.66672454 -.01593779  00000+0 -81035-2 0  9994
2 66434  42.9978 172.2777 0001521 265.3295 333.2887 15.83385359  2891
STARLINK-35502          
1 66435U 25259P   25325.66672454 -.01599777  00000+0 -81338-2 0  9995
2 66435  42.9976 172.2732 0001543 262.2999 338.3140 15.83396847  2894
STARLINK-35501          
1 66436U 25259Q   25325.66672454 -.01613809  00000+0 -82139-2 0  9999
2 66436  42.9977 172.2619 0001470 257.4997 347.3484 15.83402400  2897
STARLINK-35474          
1 66437U 25259R   25325.66672454 -.01621481  00000+0 -82630-2 0  9991
2 66437  42.9976 172.2560 0001479 260.1481 346.9544 15.83391735  2890
STARLINK-34681          
1 66438U 25259S   25325.66672454 -.01625825  00000+0 -82879-2 0  9993
2 66438  42.9975 172.2510 0001566 259.1965 350.0210 15.83391857  2786
STARLINK-35327          
1 66439U 25259T   25325.66672454 -.01602458  00000+0 -81444-2 0  9998
2 66439  42.9984 172.2688 0001460 261.3595 341.1904 15.83410725  2899
STARLINK-35405          
1 66440U 25259U   25325.66672454 -.01632799  00000+0 -83271-2 0  9991
2 66440  42.9980 172.2459 0001622 258.8745 352.4493 15.83395495  2895
